{
    "links": {
        "self": "http://www.neowsapp.com/rest/v1/neo/54053912?api_key=iIulBulltgU6a56xZRHN4H3l9WmuAYTsLGpBGhQ2"
    },
    "id": "54053912",
    "neo_reference_id": "54053912",
    "name": "(2020 RZ2)",
    "designation": "2020 RZ2",
    "nasa_jpl_url": "http://ssd.jpl.nasa.gov/sbdb.cgi?sstr=54053912",
    "absolute_magnitude_h": 21.048,
    "estimated_diameter": {
        "kilometers": {
            "estimated_diameter_min": 0.1640419702,
            "estimated_diameter_max": 0.3668089965
        },
        "meters": {
            "estimated_diameter_min": 164.0419701755,
            "estimated_diameter_max": 366.8089964754
        },
        "miles": {
            "estimated_diameter_min": 0.101930923,
            "estimated_diameter_max": 0.2279244729
        },
        "feet": {
            "estimated_diameter_min": 538.1954574306,
            "estimated_diameter_max": 1203.4416279963
        }
    },
    "is_potentially_hazardous_asteroid": false,
    "close_approach_data": [
        {
            "close_approach_date": "2020-08-20",
            "close_approach_date_full": "2020-Aug-20 18:34",
            "epoch_date_close_approach": 1597948440000,
            "relative_velocity": {
                "kilometers_per_second": "18.9276482783",
                "kilometers_per_hour": "68139.5338020236",
                "miles_per_hour": "42339.2564338185"
            },
            "miss_distance": {
                "astronomical": "0.3021180895",
                "lunar": "117.5239368155",
                "kilometers": "45196222.677669365",
                "miles": "28083630.516652637"
            },
            "orbiting_body": "Earth"
        }
    ],
    "orbital_data": {
        "orbit_id": "2",
        "orbit_determination_date": "2020-10-06 06:30:16",
        "first_observation_date": "2020-09-06",
        "last_observation_date": "2020-10-05",
        "data_arc_in_days": 29,
        "observations_used": 18,
        "orbit_uncertainty": "8",
        "minimum_orbit_intersection": ".138526",
        "jupiter_tisserand_invariant": "3.943",
        "epoch_osculation": "2459104.5",
        "eccentricity": ".5296081566637829",
        "semi_major_axis": "1.741095801648052",
        "inclination": "13.32629571149181",
        "ascending_node_longitude": "236.5539694249721",
        "orbital_period": "839.1361469103882",
        "perihelion_distance": ".8189972635621756",
        "perihelion_argument": "17.24846125856855",
        "aphelion_distance": "2.663194339733927",
        "perihelion_time": "2459037.687083835403",
        "mean_anomaly": "28.66358445862959",
        "mean_motion": ".4290126236671873",
        "equinox": "J2000",
        "orbit_class": {
            "orbit_class_type": "APO",
            "orbit_class_description": "Near-Earth asteroid orbits which cross the Earth’s orbit similar to that of 1862 Apollo",
            "orbit_class_range": "a (semi-major axis) > 1.0 AU; q (perihelion) < 1.017 AU"
        }
    },
    "is_sentry_object": false
}